NORAD_CAT_ID,OBJECT_NAME,OBJECT_TYPE,EPOCH,MEAN_MOTION,ECCENTRICITY,INCLINATION,RA_OF_ASC_NODE,ARG_OF_PERICENTER,MEAN_ANOMALY,BSTAR,MEAN_MOTION_DOT,MEAN_MOTION_DDOT,TLE_LINE0,TLE_LINE1,TLE_LINE2,SEMIMAJOR_AXIS,PERIOD,APOGEE,PERIGEE,DECAYED
56767.0,STARLINK-6197,PAYLOAD,2023-10-26 09:34:47,14.9834528,0.0002747,70.0012,26.2185,266.3913,93.6931,-0.00025817,-3.173e-05,0.0,0 STARLINK-6197,1 56767U 23078A   23299.39916188 -.00003173  00000-0 -25817-3 0  9993,2 56767  70.0012  26.2185 0002747 266.3913  93.6931 14.98345280 22837,6950.146,96.106,573.92,570.101,0.0
56767.0,STARLINK-6197,PAYLOAD,2023-10-26 14:23:11,14.98348491,0.0002589,70.0013,25.7133,264.7681,95.3182,-0.00025093,-3.087e-05,0.0,0 STARLINK-6197,1 56767U 23078A   23299.59943755 -.00003087  00000-0 -25093-3 0  9995,2 56767  70.0013  25.7133 0002589 264.7681  95.3182 14.98348491 22602,6950.136,96.106,573.8,570.201,0.0
56767.0,STARLINK-6197,PAYLOAD,2023-10-26 15:59:19,14.98332584,0.0002859,70.0016,25.5452,268.5599,91.5232,7.2255e-05,7.69e-06,0.0,0 STARLINK-6197,1 56767U 23078A   23299.66619948  .00000769  00000-0  72255-4 0  9992,2 56767  70.0016  25.5452 0002859 268.5599  91.5232 14.98332584 22618,6950.185,96.107,574.037,570.063,0.0
56767.0,STARLINK-6197,PAYLOAD,2023-10-27 12:49:03,14.98342714,0.0002891,70.0011,23.3575,267.168,92.9148,8.8437e-05,9.63e-06,0.0,0 STARLINK-6197,1 56767U 23078A   23300.53406921  .00000963  00000-0  88437-4 0  9991,2 56767  70.0011  23.3575 0002891 267.1680  92.9148 14.98342714 23008,6950.154,96.106,574.028,570.009,0.0
56767.0,STARLINK-6197,PAYLOAD,2023-10-27 22:25:52,14.98339443,0.0003067,70.0012,22.3495,264.4435,95.6375,1.3004e-05,6.2e-07,0.0,0 STARLINK-6197,1 56767U 23078A   23300.93463055  .00000062  00000-0  13004-4 0  9994,2 56767  70.0012  22.3495 0003067 264.4435  95.6375 14.98339443 22807,6950.164,96.106,574.16,569.897,0.0
56767.0,STARLINK-6197,PAYLOAD,2023-10-28 09:38:49,14.98325912,0.0002512,70.0014,21.1693,267.407,92.6802,-7.9696e-05,-1.044e-05,0.0,0 STARLINK-6197,1 56767U 23078A   23301.40196289 -.00001044  00000-0 -79696-4 0  9991,2 56767  70.0014  21.1693 0002512 267.4070  92.6802 14.98325912 23133,6950.206,96.107,573.816,570.325,0.0
56767.0,STARLINK-6197,PAYLOAD,2023-10-28 12:51:06,14.98321951,0.0002522,70.0022,20.8351,249.9365,110.1523,-0.00010109,-1.299e-05,0.0,0 STARLINK-6197,1 56767U 23078A   23301.53548616 -.00001299  00000-0 -10109-3 0  9995,2 56767  70.0022  20.8351 0002522 249.9365 110.1523 14.98321951 22899,6950.218,96.108,573.836,570.33,0.0
56767.0,STARLINK-6197,PAYLOAD,2023-10-28 22:27:53,14.98334852,0.0003222,70.0004,19.8213,270.1055,89.9735,-8.9613e-05,-1.162e-05,0.0,0 STARLINK-6197,1 56767U 23078A   23301.93603671 -.00001162  00000-0 -89613-4 0  9998,2 56767  70.0004  19.8213 0003222 270.1055  89.9735 14.98334852 22953,6950.178,96.107,574.282,569.804,0.0
56767.0,STARLINK-6197,PAYLOAD,2023-10-29 04:52:25,14.98327013,0.0003174,69.9998,19.1471,265.7841,94.2956,5.8641e-05,6.07e-06,0.0,0 STARLINK-6197,1 56767U 23078A   23302.20307611  .00000607  00000-0  58641-4 0  9992,2 56767  69.9998  19.1471 0003174 265.7841  94.2956 14.98327013 23259,6950.202,96.107,574.273,569.861,0.0
56767.0,STARLINK-6197,PAYLOAD,2023-10-29 12:53:05,14.98334837,0.0002767,70.0007,18.306,256.4055,103.6796,0.00018144,2.073e-05,0.0,0 STARLINK-6197,1 56767U 23078A   23302.53686714  .00002073  00000-0  18144-3 0  9994,2 56767  70.0007  18.3060 0002767 256.4055 103.6796 14.98334837 23304,6950.178,96.107,573.966,570.12,0.0
56767.0,STARLINK-6197,PAYLOAD,2023-10-29 14:29:13,14.98338099,0.0002847,70.0004,18.138,256.9059,103.1783,0.00025446,2.945e-05,0.0,0 STARLINK-6197,1 56767U 23078A   23302.60362285  .00002945  00000-0  25446-3 0  9997,2 56767  70.0004  18.1380 0002847 256.9059 103.1783 14.98338099 23059,6950.168,96.106,574.012,570.054,0.0
56767.0,STARLINK-6197,PAYLOAD,2023-10-30 04:54:27,14.9831088,0.0003206,70.0004,16.6233,267.6263,92.4529,-2.7493e-05,-4.21e-06,0.0,0 STARLINK-6197,1 56767U 23078A   23303.20448597 -.00000421  00000-0 -27493-4 0  9999,2 56767  70.0004  16.6233 0003206 267.6263  92.4529 14.98310880 23400,6950.252,96.108,574.345,569.889,0.0
56767.0,STARLINK-6197,PAYLOAD,2023-10-30 11:18:59,14.98312964,0.0002871,70.0004,15.9504,250.9062,109.1787,-3.891e-05,-5.57e-06,0.0,0 STARLINK-6197,1 56767U 23078A   23303.47152692 -.00000557  00000-0 -38910-4 0  9992,2 56767  70.0004  15.9504 0002871 250.9062 109.1787 14.98312964 23184,6950.246,96.108,574.106,570.115,0.0
56767.0,STARLINK-6197,PAYLOAD,2023-10-31 09:44:52,14.9832741,0.000339,69.9992,13.5931,267.8574,92.2197,-4.7297e-05,-6.57e-06,0.0,0 STARLINK-6197,1 56767U 23078A   23304.40616110 -.00000657  00000-0 -47297-4 0  9995,2 56767  69.9992  13.5931 0003390 267.8574  92.2197 14.98327410 23580,6950.201,96.107,574.422,569.71,0.0
56767.0,STARLINK-6197,PAYLOAD,2023-10-31 14:33:16,14.98340596,0.000312,69.9999,13.0885,265.852,94.2283,-0.00016502,-2.062e-05,0.0,0 STARLINK-6197,1 56767U 23078A   23304.60643519 -.00002062  00000-0 -16502-3 0  9996,2 56767  69.9999  13.0885 0003120 265.8520  94.2283 14.98340596 23353,6950.16,96.106,574.194,569.857,0.0
56767.0,STARLINK-6197,PAYLOAD,2023-11-01 04:58:28,14.98321327,0.0003255,70.0002,11.5735,270.3844,89.6942,0.00016307,1.853e-05,0.0,0 STARLINK-6197,1 56767U 23078A   23305.20727906  .00001853  00000-0  16307-3 0  9994,2 56767  70.0002  11.5735 0003255 270.3844  89.6942 14.98321327 23707,6950.22,96.108,574.347,569.822,0.0
56767.0,STARLINK-6197,PAYLOAD,2023-11-01 11:22:49,14.98476532,0.0003971,69.9998,10.8996,262.3735,97.6973,0.0018605,0.00022263,0.0,0 STARLINK-6197,1 56767U 23078A   23305.47418462  .00022263  00000-0  18605-2 0  9997,2 56767  69.9998  10.8996 0003971 262.3735  97.6973 14.98476532 23740,6949.74,96.098,574.365,568.845,0.0
56767.0,STARLINK-6197,PAYLOAD,2023-11-01 14:35:16,14.98331298,0.0003472,69.9994,10.5636,270.9292,89.1469,0.00015144,1.714e-05,0.0,0 STARLINK-6197,1 56767U 23078A   23305.60783452  .00001714  00000-0  15144-3 0  9990,2 56767  69.9994  10.5636 0003472 270.9292  89.1469 14.98331298 23502,6950.189,96.107,574.467,569.641,0.0
56767.0,STARLINK-6197,PAYLOAD,2023-11-01 19:23:41,14.98330127,0.0003517,69.9994,10.0585,273.4072,86.6685,0.00013559,1.525e-05,0.0,0 STARLINK-6197,1 56767U 23078A   23305.80811558  .00001525  00000-0  13559-3 0  9999,2 56767  69.9994  10.0585 0003517 273.4072  86.6685 14.98330127 23797,6950.192,96.107,574.502,569.613,0.0
56767.0,STARLINK-6197,PAYLOAD,2023-11-02 05:00:30,14.98327207,0.0003488,70.0003,9.0499,281.6069,78.4699,3.7659e-05,3.56e-06,0.0,0 STARLINK-6197,1 56767U 23078A   23306.20868146  .00000356  00000-0  37659-4 0  9998,2 56767  70.0003   9.0499 0003488 281.6069  78.4699 14.98327207 23853,6950.202,96.107,574.491,569.642,0.0
56767.0,STARLINK-6197,PAYLOAD,2023-11-02 13:01:09,14.98326631,0.0003068,69.9996,8.2074,266.7025,93.3783,0.00022092,2.544e-05,0.0,0 STARLINK-6197,1 56767U 23078A   23306.54247578  .00002544  00000-0  22092-3 0  9990,2 56767  69.9996   8.2074 0003068 266.7025  93.3783 14.98326631 23907,6950.203,96.107,574.201,569.936,0.0
56767.0,STARLINK-6197,PAYLOAD,2023-11-02 14:37:17,14.98339159,0.0003353,69.9992,8.0387,271.1628,88.9147,0.00013024,1.462e-05,0.0,0 STARLINK-6197,1 56767U 23078A   23306.60922990  .00001462  00000-0  13024-3 0  9998,2 56767  69.9992   8.0387 0003353 271.1628  88.9147 14.98339159 23659,6950.165,96.106,574.36,569.699,0.0
56767.0,STARLINK-6197,PAYLOAD,2023-11-02 21:01:49,14.98360934,0.0003434,70.0002,7.3655,276.8159,83.2609,-0.00046537,-5.646e-05,0.0,0 STARLINK-6197,1 56767U 23078A   23306.87626876 -.00005646  00000-0 -46537-3 0  9996,2 56767  70.0002   7.3655 0003434 276.8159  83.2609 14.98360934 23695,6950.097,96.105,574.349,569.576,0.0
56767.0,STARLINK-6197,PAYLOAD,2023-11-03 05:02:30,14.98330855,0.0003083,69.9995,6.5244,275.2178,84.8629,4.1505e-07,-8.8e-07,0.0,0 STARLINK-6197,1 56767U 23078A   23307.21007805 -.00000088  00000-0  41505-6 0  9997,2 56767  69.9995   6.5244 0003083 275.2178  84.8629 14.98330855 24006,6950.19,96.107,574.198,569.913,0.0
56767.0,STARLINK-6197,PAYLOAD,2023-11-03 13:03:10,14.98340865,0.0002965,70.0001,5.6831,273.465,86.617,-0.00016059,-2.009e-05,0.0,0 STARLINK-6197,1 56767U 23078A   23307.54387528 -.00002009  00000-0 -16059-3 0  9995,2 56767  70.0001   5.6831 0002965 273.4650  86.6170 14.98340865 23790,6950.159,96.106,574.085,569.964,0.0
56767.0,STARLINK-6197,PAYLOAD,2023-11-03 14:39:18,14.98340931,0.0002969,70.0003,5.5148,273.1451,86.9369,-0.00013393,-1.691e-05,0.0,0 STARLINK-6197,1 56767U 23078A   23307.61063410 -.00001691  00000-0 -13393-3 0  9998,2 56767  70.0003   5.5148 0002969 273.1451  86.9369 14.98340931 24060,6950.159,96.106,574.088,569.961,0.0
56767.0,STARLINK-6197,PAYLOAD,2023-11-03 21:03:50,14.9837145,0.0003199,70.0008,4.8411,276.6976,83.3819,-0.00075856,-9.142e-05,0.0,0 STARLINK-6197,1 56767U 23078A   23307.87766782 -.00009142  00000-0 -75856-3 0  9999,2 56767  70.0008   4.8411 0003199 276.6976  83.3819 14.98371450 23842,6950.065,96.104,574.153,569.706,0.0
56767.0,STARLINK-6197,PAYLOAD,2023-11-04 03:28:23,14.98324013,0.0003077,70.0015,4.1674,281.6344,78.447,6.0251e-05,6.26e-06,0.0,0 STARLINK-6197,1 56767U 23078A   23308.14472046  .00000626  00000-0  60251-4 0  9997,2 56767  70.0015   4.1674 0003077 281.6344  78.4470 14.98324013 24149,6950.211,96.107,574.215,569.938,0.0
56767.0,STARLINK-6197,PAYLOAD,2023-11-04 13:05:11,14.98330764,0.0003131,70.0,3.1566,271.8032,88.2769,1.3655e-05,7e-07,0.0,0 STARLINK-6197,1 56767U 23078A   23308.54527694  .00000070  00000-0  13655-4 0  9990,2 56767  70.0000   3.1566 0003131 271.8032  88.2769 14.98330764 23945,6950.191,96.107,574.232,569.879,0.0
56767.0,STARLINK-6197,PAYLOAD,2023-11-05 11:31:04,14.98341461,0.0002959,70.0,0.8001,265.5018,94.5803,-1.426e-05,-2.63e-06,0.0,0 STARLINK-6197,1 56767U 23078A   23309.47990820 -.00000263  00000-0 -14260-4 0  9997,2 56767  70.0000   0.8001 0002959 265.5018  94.5803 14.98341461 24344,6950.157,96.106,574.079,569.966,0.0
